{
  "norad_id": 63720,
  "name": "STARLINK-33757",
  "history": [
    {
      "epoch": "2026-03-28T12:40:34.939488Z",
      "apogee_km": 476.0825415175341,
      "perigee_km": 474.3353495021847,
      "latitude_deg": -8.303804090666623e-06,
      "longitude_deg": 115.97157672937267,
      "height_km": 475.9133744796301,
      "semi_major_axis_km": 6853.345945509859,
      "eccentricity": 0.00012747,
      "inclination_deg": 53.1598,
      "raan_deg": 132.0645,
      "arg_perigee_deg": 77.1917,
      "mean_anomaly_deg": 282.9226,
      "mean_motion_rev_day": 15.30202051
    }
  ]
}